NORAD_CAT_ID,OBJECT_NAME,OBJECT_TYPE,EPOCH,MEAN_MOTION,ECCENTRICITY,INCLINATION,RA_OF_ASC_NODE,ARG_OF_PERICENTER,MEAN_ANOMALY,BSTAR,MEAN_MOTION_DOT,MEAN_MOTION_DDOT,TLE_LINE0,TLE_LINE1,TLE_LINE2,SEMIMAJOR_AXIS,PERIOD,APOGEE,PERIGEE,DECAYED
50178.0,STARLINK-3284,PAYLOAD,2024-07-18 20:01:44,15.08827865,0.0001222,53.217,57.3444,93.4998,266.6134,-0.00015112,-2.691e-05,0.0,0 STARLINK-3284,1 50178U 21125Y   24200.83454456 -.00002691  00000-0 -15112-3 0  9992,2 50178  53.2170  57.3444 0001222  93.4998 266.6134 15.08827865146231,6917.917,95.438,540.628,538.937,0.0
50178.0,STARLINK-3284,PAYLOAD,2024-07-19 07:09:25,15.08846506,0.0001087,53.217,55.2579,70.4845,289.6264,0.00023246,3.414e-05,0.0,0 STARLINK-3284,1 50178U 21125Y   24201.29821690  .00003414  00000-0  23246-3 0  9990,2 50178  53.2170  55.2579 0001087  70.4845 289.6264 15.08846506145772,6917.861,95.437,540.477,538.974,0.0
50178.0,STARLINK-3284,PAYLOAD,2024-07-19 21:27:54,15.08836031,0.0001278,53.2178,52.5929,108.7305,251.3826,6.6684e-05,7.73e-06,0.0,0 STARLINK-3284,1 50178U 21125Y   24201.89438498  .00000773  00000-0  66684-4 0  9995,2 50178  53.2178  52.5929 0001278 108.7305 251.3826 15.08836031145869,6917.893,95.438,540.642,538.873,0.0
50178.0,STARLINK-3284,PAYLOAD,2024-07-20 07:00:13,15.08848462,0.0001218,53.2187,50.8067,91.4683,268.6449,0.00021482,3.133e-05,0.0,0 STARLINK-3284,1 50178U 21125Y   24202.29181823  .00003133  00000-0  21482-3 0  9996,2 50178  53.2187  50.8067 0001218  91.4683 268.6449 15.08848462145924,6917.855,95.437,540.562,538.877,0.0
50178.0,STARLINK-3284,PAYLOAD,2024-07-20 21:18:41,15.08839736,0.0001171,53.2173,48.127,79.2831,280.8293,2.6242e-05,1.3e-06,0.0,0 STARLINK-3284,1 50178U 21125Y   24202.88798592  .00000130  00000-0  26242-4 0  9992,2 50178  53.2173  48.1270 0001171  79.2831 280.8293 15.08839736146010,6917.881,95.438,540.556,538.936,0.0
50178.0,STARLINK-3284,PAYLOAD,2024-07-21 06:51:00,15.08856762,0.0001339,53.2183,46.3411,76.7543,283.3599,0.0003605,5.457e-05,0.0,0 STARLINK-3284,1 50178U 21125Y   24203.28541741  .00005457  00000-0  36050-3 0  9993,2 50178  53.2183  46.3411 0001339  76.7543 283.3599 15.08856762146077,6917.829,95.436,540.62,538.768,0.0
50178.0,STARLINK-3284,PAYLOAD,2024-07-21 21:09:28,15.08840749,0.0001284,53.2169,43.6674,86.7721,273.3418,0.00012138,1.644e-05,0.0,0 STARLINK-3284,1 50178U 21125Y   24203.88158430  .00001644  00000-0  12138-3 0  9993,2 50178  53.2169  43.6674 0001284  86.7721 273.3418 15.08840749146167,6917.878,95.438,540.631,538.855,0.0
50178.0,STARLINK-3284,PAYLOAD,2024-07-22 13:03:20,15.08846369,0.0001272,53.2166,40.6934,86.211,273.9028,0.00044591,6.817e-05,0.0,0 STARLINK-3284,1 50178U 21125Y   24204.54398510  .00006817  00000-0  44591-3 0  9997,2 50178  53.2166  40.6934 0001272  86.2110 273.9028 15.08846369146790,6917.861,95.437,540.606,538.846,0.0
50178.0,STARLINK-3284,PAYLOAD,2024-07-24 12:44:55,15.08843432,0.0003672,53.2167,31.7697,95.6167,264.5244,0.00035168,5.314e-05,0.0,0 STARLINK-3284,1 50178U 21125Y   24206.53119431  .00005314  00000-0  35168-3 0  9992,2 50178  53.2167  31.7697 0003672  95.6167 264.5244 15.08843432146569,6917.87,95.437,542.275,537.195,0.0
50178.0,STARLINK-3284,PAYLOAD,2024-07-25 12:35:42,15.08836486,0.0001474,53.2179,27.3117,81.9138,278.2021,0.00025026,3.697e-05,0.0,0 STARLINK-3284,1 50178U 21125Y   24207.52479784  .00003697  00000-0  25026-3 0  9996,2 50178  53.2179  27.3117 0001474  81.9138 278.2021 15.08836486146717,6917.891,95.438,540.776,538.736,0.0
50178.0,STARLINK-3284,PAYLOAD,2024-07-26 10:51:05,15.08860939,0.0002932,53.2226,23.1522,98.7941,261.3384,0.00047207,7.237e-05,0.0,0 STARLINK-3284,1 50178U 21125Y   24208.45214469  .00007237  00000-0  47207-3 0  9995,2 50178  53.2226  23.1522 0002932  98.7941 261.3384 15.08860939146852,6917.816,95.436,541.71,537.653,0.0
50178.0,STARLINK-3284,PAYLOAD,2024-07-26 18:48:01,15.08845717,0.0001857,53.2205,21.6633,98.94,261.1802,1.6376e-05,-2.7e-07,0.0,0 STARLINK-3284,1 50178U 21125Y   24208.78334575 -.00000027  00000-0  16376-4 0  9997,2 50178  53.2205  21.6633 0001857  98.9400 261.1802 15.08845717146908,6917.863,95.437,541.013,538.443,0.0
50178.0,STARLINK-3284,PAYLOAD,2024-07-27 10:41:52,15.08844519,0.0001544,53.218,18.6899,99.4341,260.6825,-7.8478e-05,-1.537e-05,0.0,0 STARLINK-3284,1 50178U 21125Y   24209.44574367 -.00001537  00000-0 -78478-4 0  9995,2 50178  53.2180  18.6899 0001544  99.4341 260.6825 15.08844519147531,6917.867,95.437,540.8,538.663,0.0
50178.0,STARLINK-3284,PAYLOAD,2024-07-28 04:11:07,15.08829157,0.0001608,53.217,15.4177,93.431,266.6866,-4.5493e-05,-1.012e-05,0.0,0 STARLINK-3284,1 50178U 21125Y   24210.17439331 -.00001012  00000-0 -45493-4 0  9997,2 50178  53.2170  15.4177 0001608  93.4310 266.6866 15.08829157147111,6917.914,95.438,540.891,538.666,0.0
50178.0,STARLINK-3284,PAYLOAD,2024-07-28 18:29:36,15.08832981,0.0001472,53.2173,12.7408,89.2714,270.8446,7.105e-05,8.43e-06,0.0,0 STARLINK-3284,1 50178U 21125Y   24210.77055770  .00000843  00000-0  71050-4 0  9991,2 50178  53.2173  12.7408 0001472  89.2714 270.8446 15.08832981147739,6917.902,95.438,540.785,538.749,0.0
50178.0,STARLINK-3284,PAYLOAD,2024-07-29 04:01:54,15.08851782,0.00014,53.2184,10.9543,82.6979,277.4173,7.5768e-05,9.18e-06,0.0,0 STARLINK-3284,1 50178U 21125Y   24211.16798875  .00000918  00000-0  75768-4 0  9998,2 50178  53.2184  10.9543 0001400  82.6979 277.4173 15.08851782147260,6917.844,95.437,540.678,538.741,0.0
50178.0,STARLINK-3284,PAYLOAD,2024-07-29 10:23:27,15.08841457,0.0001463,53.2161,9.7685,83.6114,276.5045,0.00028249,4.211e-05,0.0,0 STARLINK-3284,1 50178U 21125Y   24211.43295511  .00004211  00000-0  28249-3 0  9998,2 50178  53.2161   9.7685 0001463  83.6114 276.5045 15.08841457147300,6917.876,95.437,540.753,538.729,0.0
50178.0,STARLINK-3284,PAYLOAD,2024-07-29 18:20:23,15.08841583,0.0001463,53.2165,8.2812,83.2459,276.87,0.00023295,3.422e-05,0.0,0 STARLINK-3284,1 50178U 21125Y   24211.76415550  .00003422  00000-0  23295-3 0  9990,2 50178  53.2165   8.2812 0001463  83.2459 276.8700 15.08841583147882,6917.876,95.437,540.753,538.728,0.0
50178.0,STARLINK-3284,PAYLOAD,2024-07-30 10:14:14,15.08830655,0.000142,53.2197,5.303,102.6935,257.4216,1.3935e-05,-6.6e-07,0.0,0 STARLINK-3284,1 50178U 21125Y   24212.42656041 -.00000066  00000-0  13935-4 0  9999,2 50178  53.2197   5.3030 0001420 102.6935 257.4216 15.08830655147453,6917.909,95.438,540.756,538.792,0.0
50178.0,STARLINK-3284,PAYLOAD,2024-07-30 19:46:32,15.08849116,0.0001562,53.2175,3.5208,97.1509,262.9661,0.00016199,2.292e-05,0.0,0 STARLINK-3284,1 50178U 21125Y   24212.82399233  .00002292  00000-0  16199-3 0  9996,2 50178  53.2175   3.5208 0001562  97.1509 262.9661 15.08849116147512,6917.853,95.437,540.798,538.637,0.0
50178.0,STARLINK-3284,PAYLOAD,2024-07-31 13:15:47,15.08831224,0.000129,53.2167,0.2525,91.4588,268.6552,-0.0001176,-2.159e-05,0.0,0 STARLINK-3284,1 50178U 21125Y   24213.55263708 -.00002159  00000-0 -11760-3 0  9997,2 50178  53.2167   0.2525 0001290  91.4588 268.6552 15.08831224147626,6917.907,95.438,540.665,538.88,0.0
50178.0,STARLINK-3284,PAYLOAD,2024-07-31 14:51:10,15.08833232,0.0001385,53.2171,359.9552,90.3177,269.7973,-6.0319e-05,-1.248e-05,0.0,0 STARLINK-3284,1 50178U 21125Y   24213.61887729 -.00001248  00000-0 -60319-4 0  9992,2 50178  53.2171 359.9552 0001385  90.3177 269.7973 15.08833232148162,6917.901,95.438,540.724,538.808,0.0
50178.0,STARLINK-3284,PAYLOAD,2024-07-31 19:37:20,15.08842484,0.0001414,53.2181,359.0609,98.1663,261.949,0.00020405,2.961e-05,0.0,0 STARLINK-3284,1 50178U 21125Y   24213.81759500  .00002961  00000-0  20405-3 0  9991,2 50178  53.2181 359.0609 0001414  98.1663 261.9490 15.08842484147667,6917.873,95.437,540.716,538.76,0.0
50178.0,STARLINK-3284,PAYLOAD,2024-08-01 09:55:48,15.0885345,0.0001527,53.218,356.3843,102.3248,257.7915,0.00074368,0.00011572,0.0,0 STARLINK-3284,1 50178U 21125Y   24214.41375434  .00011572  00000-0  74368-3 0  9993,2 50178  53.2180 356.3843 0001527 102.3248 257.7915 15.08853450148287,6917.839,95.437,540.761,538.648,0.0
50178.0,STARLINK-3284,PAYLOAD,2024-08-01 19:28:06,15.08861426,0.0001249,53.2155,354.6013,91.6106,268.5029,0.0011595,0.00018224,0.0,0 STARLINK-3284,1 50178U 21125Y   24214.81119169  .00018224  00000-0  11595-2 0  9991,2 50178  53.2155 354.6013 0001249  91.6106 268.5029 15.08861426148348,6917.815,95.436,540.544,538.816,0.0
50178.0,STARLINK-3284,PAYLOAD,2024-08-02 01:49:38,15.08880749,0.0001191,53.217,353.4125,91.9844,268.1284,0.0013026,0.00020527,0.0,0 STARLINK-3284,1 50178U 21125Y   24215.07614324  .00020527  00000-0  13026-2 0  9993,2 50178  53.2170 353.4125 0001191  91.9844 268.1284 15.08880749147857,6917.756,95.435,540.445,538.797,0.0
50178.0,STARLINK-3284,PAYLOAD,2024-08-02 12:57:21,15.0882182,0.0001591,53.2185,351.3295,103.6388,256.4781,-0.00063396,-0.00010358,0.0,0 STARLINK-3284,1 50178U 21125Y   24215.53983622 -.00010358  00000-0 -63396-3 0  9993,2 50178  53.2185 351.3295 0001591 103.6388 256.4781 15.08821820147921,6917.936,95.439,540.902,538.7,0.0
50178.0,STARLINK-3284,PAYLOAD,2024-08-02 14:32:45,15.08823356,0.0001677,53.2184,351.0322,102.3373,257.7807,-0.00045788,-7.565e-05,0.0,0 STARLINK-3284,1 50178U 21125Y   24215.60607785 -.00007565  00000-0 -45788-3 0  9995,2 50178  53.2184 351.0322 0001677 102.3373 257.7807 15.08823356148462,6917.931,95.439,540.956,538.636,0.0
50178.0,STARLINK-3284,PAYLOAD,2024-08-02 16:08:08,15.08827579,0.0001461,53.2181,350.7362,93.4511,266.6648,-0.00016291,-2.879e-05,0.0,0 STARLINK-3284,1 50178U 21125Y   24215.67231811 -.00002879  00000-0 -16291-3 0  9995,2 50178  53.2181 350.7362 0001461  93.4511 266.6648 15.08827579148478,6917.918,95.438,540.794,538.773,0.0
50178.0,STARLINK-3284,PAYLOAD,2024-08-03 01:40:27,15.08842479,0.0001502,53.2182,348.9534,100.265,259.8512,0.0011995,0.00018855,0.0,0 STARLINK-3284,1 50178U 21125Y   24216.06976210  .00018855  00000-0  11995-2 0  9992,2 50178  53.2182 348.9534 0001502 100.2650 259.8512 15.08842479148005,6917.873,95.437,540.777,538.699,0.0
